{
  "type": "FeatureCollection",
  "features": [
    {
      "type": "Feature",
      "properties": {
        "norad_id": 29790,
        "name": "FENGYUN 1C DEB",
        "group": "fengyun-1c-debris",
        "lat": -44.8605749488418,
        "lon": -9.955663767786506,
        "alt_km": 831.4173474753234,
        "timestamp": "2025-12-12T18:57:44.401050+00:00",
        "meta_object_name": "FENGYUN 1C DEB",
        "meta_object_id": "1999-025CG",
        "meta_epoch": "2025-12-12T05:45:53.568576",
        "meta_mean_motion": 14.32267723,
        "meta_eccentricity": 0.00764837,
        "meta_inclination": 99.1474,
        "meta_ra_of_asc_node": 340.2378,
        "meta_arg_of_pericenter": 177.9822,
        "meta_mean_anomaly": 182.1683,
        "meta_ephemeris_type": 0,
        "meta_classification_type": "U",
        "meta_norad_cat_id": 29790,
        "meta_element_set_no": 999,
        "meta_rev_at_epoch": 98518,
        "meta_bstar": 0.00042381799,
        "meta_mean_motion_dot": 1.132e-05,
        "meta_mean_motion_ddot": 0,
        "tle_line1": "1 29790U 99025CG  25346.24020334  .00001132  00000+0  42382-3 0  9998",
        "tle_line2": "2 29790  99.1474 340.2378 0076483 177.9822 182.1683 14.32267723985181"
      },
      "geometry": {
        "type": "Point",
        "coordinates": [
          -9.955663767786506,
          -44.8605749488418
        ]
      }
    },
    {
      "type": "Feature",
      "properties": {
        "norad_id": 29791,
        "name": "FENGYUN 1C DEB",
        "group": "fengyun-1c-debris",
        "lat": -66.72457292145555,
        "lon": 145.62403665936577,
        "alt_km": 735.2759446859563,
        "timestamp": "2025-12-12T18:57:44.401060+00:00",
        "meta_object_name": "FENGYUN 1C DEB",
        "meta_object_id": "1999-025CH",
        "meta_epoch": "2025-12-11T23:58:51.019104",
        "meta_mean_motion": 14.58233059,
        "meta_eccentricity": 0.0041592,
        "meta_inclination": 99.0371,
        "meta_ra_of_asc_node": 346.4799,
        "meta_arg_of_pericenter": 64.1843,
        "meta_mean_anomaly": 354.7439,
        "meta_ephemeris_type": 0,
        "meta_classification_type": "U",
        "meta_norad_cat_id": 29791,
        "meta_element_set_no": 999,
        "meta_rev_at_epoch": 98835,
        "meta_bstar": 0.0023812,
        "meta_mean_motion_dot": 0.00011088,
        "meta_mean_motion_ddot": 0,
        "tle_line1": "1 29791U 99025CH  25345.99920161  .00011088  00000+0  23812-2 0  9994",
        "tle_line2": "2 29791  99.0371 346.4799 0041592  64.1843 354.7439 14.58233059988356"
      },
      "geometry": {
        "type": "Point",
        "coordinates": [
          145.62403665936577,
          -66.72457292145555
        ]
      }
    },
    {
      "type": "Feature",
      "properties": {
        "norad_id": 29792,
        "name": "FENGYUN 1C DEB",
        "group": "fengyun-1c-debris",
        "lat": -77.1350710931436,
        "lon": 174.90367534126835,
        "alt_km": 874.0203124797299,
        "timestamp": "2025-12-12T18:57:44.401070+00:00",
        "meta_object_name": "FENGYUN 1C DEB",
        "meta_object_id": "1999-025CJ",
        "meta_epoch": "2025-12-12T02:27:45.945504",
        "meta_mean_motion": 14.15148904,
        "meta_eccentricity": 0.00480793,
        "meta_inclination": 98.7575,
        "meta_ra_of_asc_node": 36.6781,
        "meta_arg_of_pericenter": 38.5536,
        "meta_mean_anomaly": 321.9056,
        "meta_ephemeris_type": 0,
        "meta_classification_type": "U",
        "meta_norad_cat_id": 29792,
        "meta_element_set_no": 999,
        "meta_rev_at_epoch": 96930,
        "meta_bstar": 0.0018619114,
        "meta_mean_motion_dot": 3.612e-05,
        "meta_mean_motion_ddot": 0,
        "tle_line1": "1 29792U 99025CJ  25346.10261511  .00003612  00000+0  18619-2 0  9999",
        "tle_line2": "2 29792  98.7575  36.6781 0048079  38.5536 321.9056 14.15148904969301"
      },
      "geometry": {
        "type": "Point",
        "coordinates": [
          174.90367534126835,
          -77.1350710931436
        ]
      }
    },
    {
      "type": "Feature",
      "properties": {
        "norad_id": 29793,
        "name": "FENGYUN 1C DEB",
        "group": "fengyun-1c-debris",
        "lat": -55.268513546846805,
        "lon": -26.676668812386552,
        "alt_km": 917.3789973131697,
        "timestamp": "2025-12-12T18:57:44.401081+00:00",
        "meta_object_name": "FENGYUN 1C DEB",
        "meta_object_id": "1999-025CK",
        "meta_epoch": "2025-12-11T11:06:50.956992",
        "meta_mean_motion": 14.01072148,
        "meta_eccentricity": 0.01437261,
        "meta_inclination": 98.3547,
        "meta_ra_of_asc_node": 164.3466,
        "meta_arg_of_pericenter": 341.854,
        "meta_mean_anomaly": 46.3451,
        "meta_ephemeris_type": 0,
        "meta_classification_type": "U",
        "meta_norad_cat_id": 29793,
        "meta_element_set_no": 999,
        "meta_rev_at_epoch": 96131,
        "meta_bstar": 0.0015314699,
        "meta_mean_motion_dot": 2.474e-05,
        "meta_mean_motion_ddot": 0,
        "tle_line1": "1 29793U 99025CK  25345.46308978  .00002474  00000+0  15315-2 0  9992",
        "tle_line2": "2 29793  98.3547 164.3466 0143726 341.8540  46.3451 14.01072148961317"
      },
      "geometry": {
        "type": "Point",
        "coordinates": [
          -26.676668812386552,
          -55.268513546846805
        ]
      }
    },
    {
      "type": "Feature",
      "properties": {
        "norad_id": 29794,
        "name": "FENGYUN 1C DEB",
        "group": "fengyun-1c-debris",
        "lat": -9.297050614090336,
        "lon": -35.93106611175367,
        "alt_km": 963.8141839010786,
        "timestamp": "2025-12-12T18:57:44.401091+00:00",
        "meta_object_name": "FENGYUN 1C DEB",
        "meta_object_id": "1999-025CL",
        "meta_epoch": "2025-12-12T03:01:12.676224",
        "meta_mean_motion": 14.08995015,
        "meta_eccentricity": 0.01571268,
        "meta_inclination": 98.1997,
        "meta_ra_of_asc_node": 144.8166,
        "meta_arg_of_pericenter": 42.2781,
        "meta_mean_anomaly": 18.6044,
        "meta_ephemeris_type": 0,
        "meta_classification_type": "U",
        "meta_norad_cat_id": 29794,
        "meta_element_set_no": 999,
        "meta_rev_at_epoch": 96839,
        "meta_bstar": 0.00072284963,
        "meta_mean_motion_dot": 1.365e-05,
        "meta_mean_motion_ddot": 0,
        "tle_line1": "1 29794U 99025CL  25346.12584116  .00001365  00000+0  72285-3 0  9995",
        "tle_line2": "2 29794  98.1997 144.8166 0157126  42.2781  18.6044 14.08995015968392"
      },
      "geometry": {
        "type": "Point",
        "coordinates": [
          -35.93106611175367,
          -9.297050614090336
        ]
      }
    },
    {
      "type": "Feature",
      "properties": {
        "norad_id": 29795,
        "name": "FENGYUN 1C DEB",
        "group": "fengyun-1c-debris",
        "lat": -77.86429313533917,
        "lon": 162.72989835451617,
        "alt_km": 844.788722108965,
        "timestamp": "2025-12-12T18:57:44.401100+00:00",
        "meta_object_name": "FENGYUN 1C DEB",
        "meta_object_id": "1999-025CM",
        "meta_epoch": "2025-12-11T14:20:54.355776",
        "meta_mean_motion": 13.92908636,
        "meta_eccentricity": 0.01110369,
        "meta_inclination": 98.8703,
        "meta_ra_of_asc_node": 115.0169,
        "meta_arg_of_pericenter": 279.3658,
        "meta_mean_anomaly": 143.697,
        "meta_ephemeris_type": 0,
        "meta_classification_type": "U",
        "meta_norad_cat_id": 29795,
        "meta_element_set_no": 999,
        "meta_rev_at_epoch": 96049,
        "meta_bstar": 0.00031937448,
        "meta_mean_motion_dot": 3.93e-06,
        "meta_mean_motion_ddot": 0,
        "tle_line1": "1 29795U 99025CM  25345.59785134  .00000393  00000+0  31937-3 0  9998",
        "tle_line2": "2 29795  98.8703 115.0169 0111036 279.3658 143.6970 13.92908636960499"
      },
      "geometry": {
        "type": "Point",
        "coordinates": [
          162.72989835451617,
          -77.86429313533917
        ]
      }
    },
    {
      "type": "Feature",
      "properties": {
        "norad_id": 29796,
        "name": "FENGYUN 1C DEB",
        "group": "fengyun-1c-debris",
        "lat": -80.0136433047044,
        "lon": 156.24581098900532,
        "alt_km": 821.2515650376099,
        "timestamp": "2025-12-12T18:57:44.401111+00:00",
        "meta_object_name": "FENGYUN 1C DEB",
        "meta_object_id": "1999-025CN",
        "meta_epoch": "2025-12-12T02:39:41.571648",
        "meta_mean_motion": 14.12333611,
        "meta_eccentricity": 0.00518482,
        "meta_inclination": 98.8649,
        "meta_ra_of_asc_node": 37.9902,
        "meta_arg_of_pericenter": 269.687,
        "meta_mean_anomaly": 144.3195,
        "meta_ephemeris_type": 0,
        "meta_classification_type": "U",
        "meta_norad_cat_id": 29796,
        "meta_element_set_no": 999,
        "meta_rev_at_epoch": 97052,
        "meta_bstar": 0.00091369498,
        "meta_mean_motion_dot": 1.66e-05,
        "meta_mean_motion_ddot": 0,
        "tle_line1": "1 29796U 99025CN  25346.11089782  .00001660  00000+0  91369-3 0  9997",
        "tle_line2": "2 29796  98.8649  37.9902 0051848 269.6870 144.3195 14.12333611970528"
      },
      "geometry": {
        "type": "Point",
        "coordinates": [
          156.24581098900532,
          -80.0136433047044
        ]
      }
    }
  ]
}